[{"OBJECT_NAME":"MONITOR-2 (RS39S)","OBJECT_ID":"2023-091U","EPOCH":"2026-03-09T22:29:03.497856","MEAN_MOTION":15.17917968,"ECCENTRICITY":0.00130556,"INCLINATION":97.5198,"RA_OF_ASC_NODE":127.8703,"ARG_OF_PERICENTER":98.0854,"MEAN_ANOMALY":262.1862,"EPHEMERIS_TYPE":0,"CLASSIFICATION_TYPE":"U","NORAD_CAT_ID":57184,"ELEMENT_SET_NO":999,"REV_AT_EPOCH":14889,"BSTAR":0.00030772379,"MEAN_MOTION_DOT":6.188e-5,"MEAN_MOTION_DDOT":0},{"OBJECT_NAME":"ZORKIY-2M-5","OBJECT_ID":"2025-313AZ","EPOCH":"2026-03-09T22:42:26.981568","MEAN_MOTION":15.22674372,"ECCENTRICITY":0.00099299,"INCLINATION":97.4004,"RA_OF_ASC_NODE":145.3305,"ARG_OF_PERICENTER":342.384,"MEAN_ANOMALY":17.7051,"EPHEMERIS_TYPE":0,"CLASSIFICATION_TYPE":"U","NORAD_CAT_ID":67295,"ELEMENT_SET_NO":999,"REV_AT_EPOCH":1086,"BSTAR":0.00041596363,"MEAN_MOTION_DOT":9.635e-5,"MEAN_MOTION_DDOT":0}]
